[{"OBJECT_NAME":"EZIE-B","OBJECT_ID":"2025-052AS","EPOCH":"2026-03-09T23:09:37.705536","MEAN_MOTION":14.96286279,"ECCENTRICITY":0.00040038,"INCLINATION":97.7009,"RA_OF_ASC_NODE":322.7783,"ARG_OF_PERICENTER":146.8572,"MEAN_ANOMALY":213.2901,"EPHEMERIS_TYPE":0,"CLASSIFICATION_TYPE":"U","NORAD_CAT_ID":63250,"ELEMENT_SET_NO":999,"REV_AT_EPOCH":5382,"BSTAR":0.00063815223,"MEAN_MOTION_DOT":7.158e-5,"MEAN_MOTION_DDOT":0},{"OBJECT_NAME":"STARLINK-36167","OBJECT_ID":"2025-293J","EPOCH":"2026-03-09T16:00:03.000096","MEAN_MOTION":14.98353371,"ECCENTRICITY":0.00035327,"INCLINATION":69.9998,"RA_OF_ASC_NODE":94.3623,"ARG_OF_PERICENTER":273.6486,"MEAN_ANOMALY":249.1448,"EPHEMERIS_TYPE":0,"CLASSIFICATION_TYPE":"U","NORAD_CAT_ID":67011,"ELEMENT_SET_NO":999,"REV_AT_EPOCH":533,"BSTAR":-0.0036450478,"MEAN_MOTION_DOT":-0.00043345,"MEAN_MOTION_DDOT":0}]
